{"type":"Feature","properties":{"GID_1":"STP.1_1","GID_0":"STP","country":"SãoToméandPríncipe","province":"Príncipe","VARNAME_1":"NA","NL_NAME_1":"NA","TYPE_1":"Concelho","ENGTYPE_1":"Municipality","CC_1":"NA","HASC_1":"ST.PR","ISO_1":"NA","name":"Príncipe.province"},
"geometry":{"type": "MultiPolygon","coordinates": [[[[7.2935,1.3443,3.3764],[7.2896,1.3429,4.2096],[7.2907,1.339,0.0],[7.2943,1.3415,0.0],[7.2935,1.3443,3.3764]]],
[[[7.284,1.3832,1.9376],[7.281,1.3832,0.0],[7.2815,1.3801,0.0],[7.2843,1.3813,0.0],[7.284,1.3832,1.9376]]],
[[[7.4038,1.6932,1.4289],[7.4021,1.6943,0.0],[7.4007,1.6913,8.5896],[7.3982,1.6907,18.8704],[7.3965,1.6929,3.8425],[7.3932,1.6938,0.0],[7.3954,1.6857,4.1645],[7.3901,1.6835,0.0],[7.389,1.681,0.0],[7.3796,1.6793,5.9425],[7.371,1.6837,0.0],[7.3676,1.6807,0.0],[7.3682,1.6724,14.0722],[7.366,1.6701,30.478],[7.369,1.6632,21.5579],[7.3654,1.6554,0.0],[7.369,1.6554,-2.2618],[7.3724,1.6482,6.4688],[7.3715,1.646,1.3556],[7.369,1.6457,-0.5336],[7.3643,1.6418,27.9064],[7.364,1.6338,46.159],[7.3679,1.6307,18.977],[7.3696,1.6221,-2.6334],[7.3693,1.6182,-1.7251],[7.3651,1.6149,5.4844],[7.3638,1.6115,61.24],[7.3637,1.6049,11.8804],[7.3596,1.6051,18.9557],[7.3568,1.6015,3.9069],[7.3504,1.601,5.5774],[7.3471,1.6026,-0.0088],[7.3435,1.6012,18.1827],[7.3401,1.6063,7.1169],[7.3337,1.6088,0.0],[7.3299,1.6076,0.0],[7.329,1.6046,40.5526],[7.3268,1.6037,0.0],[7.3276,1.5985,0.0],[7.336,1.594,0.0],[7.3335,1.5879,0.0],[7.3338,1.5846,0.0],[7.3349,1.5815,5.7609],[7.3382,1.579,0.0],[7.3393,1.5751,43.3043],[7.3382,1.5704,0.0],[7.3407,1.5657,0.0],[7.3399,1.5638,3.4291],[7.3382,1.564,0.0],[7.3379,1.561,0.0],[7.3393,1.556,20.6612],[7.3415,1.554,91.9578],[7.3407,1.5524,0.0],[7.346,1.5524,3.9441],[7.3465,1.5574,38.4869],[7.3549,1.5596,-0.863],[7.3671,1.5462,-0.0491],[7.3696,1.5474,8.7821],[7.371,1.5457,0.173],[7.376,1.5493,23.4717],[7.3754,1.5482,-0.0947],[7.381,1.5438,15.5381],[7.3801,1.5393,-5.5209],[7.384,1.5354,-3.0125],[7.3832,1.5324,-1.625],[7.3857,1.5338,-1.0634],[7.386,1.5368,-2.3073],[7.3943,1.5396,4.5873],[7.3976,1.539,6.8461],[7.399,1.5268,-3.8793],[7.401,1.5257,-1.6471],[7.4049,1.5296,0.0],[7.4057,1.536,0.4985],[7.4018,1.5407,-3.6929],[7.3999,1.5468,-6.0995],[7.4038,1.5476,9.6228],[7.4132,1.5576,6.0918],[7.4182,1.5574,12.0875],[7.4185,1.5529,-0.659],[7.4215,1.5512,0.2868],[7.4265,1.554,-0.4829],[7.4268,1.5571,0.0],[7.4226,1.5626,12.6402],[7.4249,1.5646,6.4908],[7.4254,1.5682,-0.0237],[7.429,1.5685,0.0],[7.4288,1.5713,-0.5265],[7.4271,1.5721,0.6018],[7.4307,1.5793,-1.3794],[7.4304,1.5854,0.0],[7.424,1.5935,39.8807],[7.426,1.604,23.8044],[7.4288,1.6035,0.0],[7.4321,1.6054,0.0],[7.4413,1.6165,0.0],[7.4485,1.6163,6.7144],[7.4499,1.6138,0.0],[7.4515,1.614,9.1522],[7.4554,1.6174,0.0],[7.4563,1.6204,0.0],[7.4626,1.6249,0.0],[7.4621,1.6301,1.0599],[7.4593,1.6307,10.8991],[7.4582,1.6346,1.4004],[7.4565,1.6343,1.4004],[7.4563,1.6315,5.7677],[7.4521,1.6329,17.4465],[7.4554,1.6399,1.3188],[7.4493,1.6413,1.4721],[7.4482,1.6388,18.9957],[7.4451,1.6388,0.0],[7.444,1.6413,0.0],[7.4426,1.6407,5.3735],[7.4393,1.6443,18.979],[7.4399,1.6468,0.0],[7.4385,1.6488,0.0],[7.4365,1.649,0.0],[7.4351,1.646,4.5463],[7.4285,1.6454,3.6534],[7.4249,1.6401,-0.2045],[7.4212,1.6426,12.8016],[7.426,1.6499,0.0],[7.429,1.6515,3.5531],[7.4332,1.6599,34.3911],[7.4371,1.6615,8.1468],[7.4435,1.6601,0.0],[7.4493,1.6621,0.6258],[7.4451,1.6651,8.6493],[7.4449,1.6682,2.6065],[7.4507,1.674,21.9731],[7.4543,1.6732,25.1533],[7.4593,1.6682,0.0],[7.4621,1.6682,0.0],[7.4601,1.6749,13.97],[7.4624,1.6763,4.7237],[7.4626,1.6807,0.0],[7.4529,1.6824,0.0],[7.4496,1.6849,45.6917],[7.4482,1.6882,0.0],[7.4454,1.6882,7.9285],[7.4412,1.6926,0.0],[7.4393,1.6918,0.0],[7.439,1.6871,0.0],[7.4357,1.6843,12.1128],[7.4329,1.6843,6.2077],[7.4299,1.6871,0.0],[7.4257,1.684,0.0],[7.4232,1.6874,0.0],[7.4163,1.6904,30.9466],[7.4124,1.6893,0.0],[7.4099,1.6921,0.0],[7.4063,1.691,5.2464],[7.4038,1.6932,1.4289]]],
[[[7.4318,1.5168,0.0],[7.4274,1.5165,0.0],[7.4249,1.5132,0.0],[7.4276,1.5107,0.0],[7.4293,1.5104,0.0],[7.4293,1.5121,0.0],[7.4321,1.5099,0.0],[7.4343,1.514,0.0],[7.4318,1.5168,0.0]]],
[[[7.4043,1.701,2.256],[7.4013,1.6999,23.6213],[7.4013,1.6943,0.0],[7.4046,1.6971,17.8096],[7.4043,1.701,2.256]]]]}}