{"type": "Feature","id": "4862","bbox": [7.32936,1.5312,7.46274,1.69977],"geometry": {"type": "Polygon","coordinates": [[[7.46274,1.67455,0.0],[7.45973,1.6883,0.0],[7.44874,1.69318,0.0],[7.42123,1.69571,0.0],[7.40301,1.69977,22.243],[7.38526,1.69233,0.0],[7.37184,1.67719,64.8437],[7.36655,1.65811,4.1165],[7.36647,1.64179,49.6159],[7.36402,1.62938,0.0],[7.35597,1.62002,0.0],[7.33937,1.6131,0.0],[7.33009,1.61465,0.0],[7.32936,1.59626,0.0],[7.33253,1.56533,0.0],[7.34376,1.55988,98.33],[7.35841,1.55891,68.446],[7.37224,1.55414,182.8163],[7.38103,1.53799,-1.5817],[7.38738,1.54247,124.4524],[7.39405,1.5454,124.8722],[7.39568,1.54239,88.8794],[7.39877,1.53498,71.7017],[7.40138,1.5312,62.3319],[7.40252,1.54206,-3.6929],[7.40211,1.55073,32.8956],[7.40577,1.55646,15.2094],[7.41822,1.5585,12.0875],[7.42555,1.56273,0.0],[7.43051,1.57274,0.0],[7.43556,1.5926,0.0],[7.43442,1.61522,82.611],[7.43824,1.62393,73.5501],[7.45265,1.62735,67.6266],[7.46176,1.6308,0.0],[7.45672,1.63833,0.0],[7.44353,1.64545,0.0],[7.42872,1.64785,0.0],[7.43483,1.65888,0.0],[7.44614,1.66547,0.0],[7.45737,1.66999,0.0],[7.46274,1.67455,0.0]]]}
,"properties": {"ISO3166-1-Alpha-3": "STP","country": "Sao Tome and Principe","fill": "#F0F","name": "Príncipe","area_km2": 157.4058,"hist_schema_id": "Elevation0-9000","hist_area_km2": {"0": 28.9928,"25": 8.3503,"50": 11.4233,"75": 12.2499,"100": 13.7123,"125": 11.9744,"150": 12.5467,"175": 17.5271,"200": 7.1847,"225": 4.1116,"250": 3.7514,"275": 2.6069,"300": 2.734,"325": 2.5645,"350": 2.5221,"375": 1.6743,"400": 1.8439,"425": 1.5896,"450": 1.2928,"475": 1.1869,"500": 1.314,"525": 1.2928,"550": 0.9537,"575": 0.7418,"600": 0.5299,"625": 0.5934,"650": 0.4239,"675": 0.4875,"700": 0.3179,"725": 0.2755,"750": 0.2119,"775": 0.106,"800": 0.1272,"825": 0.0424,"850": 0.0636,"875": 0.0848}}}