{"type":"Feature","properties":{"GID_2":"STP.2.1_1","GID_0":"STP","country":"SãoToméandPríncipe","GID_1":"STP.2_1","province":"SãoTomé","NL_NAME_1":"NA","county":"ÁguaGrande","VARNAME_2":"NA","NL_NAME_2":"NA","TYPE_2":"District","ENGTYPE_2":"NA","CC_2":"NA","HASC_2":"ST.ST.AG","name":"Água_Grande.county"},
"geometry":{"type": "MultiPolygon","coordinates": [[[[6.7488,0.3093,0.0],[6.7488,0.3135,1.3245],[6.7415,0.3182,7.9714],[6.7426,0.3329,0.0],[6.7399,0.334,6.939],[6.7415,0.3385,2.6264],[6.7401,0.3465,1.9141],[6.7368,0.349,0.0],[6.7337,0.3399,4.7642],[6.7271,0.341,3.6572],[6.7232,0.3451,12.3446],[6.7221,0.349,2.2192],[6.7268,0.3585,0.0],[6.7235,0.3615,3.8107],[6.7213,0.3618,0.0],[6.7176,0.3593,1.8045],[6.7138,0.3621,3.7438],[6.7132,0.3713,5.4559],[6.7174,0.3726,1.0762],[6.7185,0.3751,0.0],[6.7224,0.3751,0.0],[6.7201,0.3782,0.6772],[6.7201,0.3818,0.0],[6.7154,0.381,4.4011],[6.7138,0.3835,0.9198],[6.7076,0.3826,1.0334],[6.7026,0.3843,0.9941],[6.7026,0.3776,13.4472],[6.7061,0.3711,16.2513],[6.7104,0.3671,4.3397],[6.7116,0.3607,8.0019],[6.7104,0.3523,26.4241],[6.7055,0.3452,74.0953],[6.7108,0.3368,74.0639],[6.7106,0.3332,58.2928],[6.7041,0.3176,102.8322],[6.7107,0.3188,78.1735],[6.7176,0.3174,65.6199],[6.7246,0.3122,50.7371],[6.7408,0.314,14.0888],[6.7488,0.3093,0.0]]]]}}