{"type":"Feature","properties":{"featurecla":"Island","name":"Príncipe","namealt":null,"region":"Africa","subregion":null,"min_label":5.4,"max_label":10.0,"scalerank":5},
"geometry":{"type": "Polygon","coordinates": [[[7.4342147144587614,1.6164614929628409,74.7374],[7.4381209644587329,1.6251284851503269,73.5501],[7.4524031910212329,1.6285464539003129,67.6266],[7.4616805347712614,1.632025457806606,0.0],[7.4564315113337329,1.63947174686912,0.0],[7.4433699878962614,1.646612860150356,0.0],[7.4285994800837614,1.6490542664003129,0.0],[7.4347029957087614,1.6600405945253409,0.0],[7.4460555347712614,1.6666934265565629,0.0],[7.4572860035212329,1.671148992962884,21.9844],[7.4626570972712614,1.6757876648378409,0.0],[7.4596053394587614,1.689459539837884,0.0],[7.4486190113337614,1.6943423523378129,0.0],[7.4211531910212614,1.6968447937440769,0.0],[7.4028426441462614,1.7009341492128129,2.256],[7.38514244883379,1.69354889530662,0.0],[7.3717147144587054,1.678412176556549,64.8437],[7.3664656910212054,1.6592471374940629,2.8687],[7.36634362070879,1.64301178593162,20.1472],[7.3639022144587329,1.630621649212799,0.0],[7.3558455738337614,1.62116119999412,0.0],[7.3391219410212329,1.6142642273378409,0.0],[7.3298445972712054,1.6157901062440909,0.0],[7.3291121753962329,1.59741852421287,0.0],[7.3322860035212614,1.566534735150299,0.0],[7.3436385425837614,1.561102606244049,131.2361],[7.3582869800837329,1.5600650085878129,68.446],[7.37208092539629,1.55536530155662,182.8163],[7.3808699878962054,1.5391909851503129,-5.5209],[7.3872176441462614,1.543646551556549,124.4524],[7.39380944102129,1.5466372742128269,134.8372],[7.3955184253962614,1.5435855164003269,88.8794],[7.39869225352129,1.53620026249412,66.4848],[7.40125573008379,1.5323550476503409,83.5723],[7.4023543628962329,1.5432803406190629,0.0],[7.4019881519587614,1.551947332806549,32.8956],[7.40565026133379,1.5576236023378409,41.4092],[7.4179793628962329,1.559637762494106,20.0948],[7.42530358164629,1.5639102234315909,6.4908],[7.43043053477129,1.573981024212799,0.0],[7.4354354175837329,1.593817449994049,0.0],[7.4342147144587614,1.6164614929628409,74.7374]]]}}