{"type":"Feature","properties":{"featurecla":"Island","name":"São Tomé","namealt":null,"region":"Africa","subregion":null,"min_label":5.4,"max_label":10.0,"scalerank":5},
"geometry":{"type": "Polygon","coordinates": [[[6.61609948008379,0.079291082806549,0.0],[6.6179305347712054,0.082342840619049,0.0],[6.6334334644587614,0.099798895306563,0.0],[6.64136803477129,0.102240301556606,0.0],[6.6523543628962054,0.104376532025313,0.0],[6.6599227222712329,0.108526922650356,0.0],[6.6530867847712614,0.12579987186912,0.0],[6.6589461597712329,0.130072332806591,0.0],[6.6683455738337614,0.132208563275299,0.0],[6.6744490894587614,0.134588934369134,0.0],[6.70289147227129,0.181586004681606,0.0],[6.71546471445879,0.196600653119063,0.0],[6.73987877695879,0.219732977337856,0.0],[6.7484236988337329,0.231940008587856,0.0],[6.7563582691462614,0.251227117962799,0.0],[6.76038658945879,0.269476629681577,0.0],[6.7607528003962614,0.285345770306606,0.0],[6.7563582691462614,0.312079168744049,0.0],[6.7458602222712614,0.33923981327537,0.0],[6.7269393238337329,0.368109442181591,0.0],[6.7036238941462614,0.393072821087827,0.0],[6.6811629566462329,0.408270574994106,0.0],[6.6416121753962329,0.411932684369049,0.0],[6.6093856128962614,0.391546942181577,88.0893],[6.57813561289629,0.365790106244063,147.9218],[6.54066002695879,0.353033758587841,9.6831],[6.5329695972712329,0.349310614056591,0.0],[6.4976912769587329,0.313910223431563,85.5141],[6.4951278003962329,0.307562567181606,145.1677],[6.4941512378962329,0.301153875775341,129.1031],[6.49012291758379,0.292181707806577,94.9633],[6.4707137378962329,0.269110418744091,3.7808],[6.46827233164629,0.261175848431577,6.2366],[6.4680281910212329,0.241034246869049,45.8399],[6.4661971363337054,0.232245184369134,33.5084],[6.4614363941462329,0.223334051556591,0.0],[6.46705162852129,0.213629461712856,89.199],[6.5025740894587614,0.099798895306563,0.0],[6.5056258472712614,0.096075750775299,0.0],[6.5094100269587329,0.093817449994077,0.0],[6.5134383472712329,0.089422918744077,0.0],[6.5168563160212329,0.079291082806549,10.5365],[6.5164901050837329,0.071173407025299,56.5872],[6.51148522227129,0.053961492962841,0.0],[6.5100203785212614,0.052618719525327,4.6646],[6.51624596445879,0.034857489056563,10.3411],[6.5263778003962054,0.025336004681577,0.0],[6.5368758472712329,0.027655340619106,0.0],[6.5440779957087614,0.045172430462827,57.0789],[6.5571395191462614,0.02948639530662,0.0],[6.5676375660212614,0.043280340619091,0.0],[6.57813561289629,0.079291082806549,0.0],[6.5827742847712614,0.078558660931577,0.0],[6.61609948008379,0.079291082806549,0.0]]]}}