{"type": "Feature","id": "4861","bbox": [6.46168,0.02412,6.76092,0.41079],"geometry": {"type": "Polygon","coordinates": [[[6.68141,0.40713,0.0],[6.64186,0.41079,0.0],[6.60955,0.39037,126.3565],[6.5783,0.36457,113.7041],[6.54078,0.35187,18.7025],[6.53305,0.34813,0.0],[6.49781,0.31269,93.8746],[6.49537,0.30638,168.7155],[6.49431,0.29999,108.5793],[6.49024,0.29096,134.1444],[6.47088,0.26789,7.4227],[6.46852,0.25996,50.7518],[6.46811,0.23981,94.6708],[6.46632,0.23102,43.2419],[6.46168,0.22215,0.0],[6.4673,0.21247,89.199],[6.5027,0.09858,0.0],[6.50571,0.09488,0.0],[6.50961,0.09268,0.0],[6.51368,0.08828,0.0],[6.51694,0.07811,0.0],[6.51661,0.06997,105.3788],[6.51173,0.05272,4.6646],[6.5101,0.05142,37.7717],[6.51637,0.03364,16.6894],[6.52662,0.02412,0.0],[6.53696,0.02643,0.0],[6.5442,0.04393,57.0789],[6.5573,0.02827,0.0],[6.56772,0.04214,0.0],[6.57838,0.07811,0.0],[6.58286,0.07734,0.0],[6.61622,0.07811,0.0],[6.61817,0.0812,0.0],[6.63364,0.09858,0.0],[6.64145,0.10102,0.0],[6.6526,0.10322,0.0],[6.66,0.10733,0.0],[6.65333,0.12458,0.0],[6.65919,0.12885,0.0],[6.66847,0.13101,0.0],[6.67457,0.13337,0.0],[6.70314,0.18041,0.0],[6.71559,0.19546,0.0],[6.74008,0.21857,0.0],[6.74855,0.2307,0.0],[6.75652,0.25007,0.0],[6.76051,0.2683,0.0],[6.76092,0.28417,0.0],[6.75652,0.31086,0.0],[6.7461,0.33808,0.0],[6.72706,0.36693,0.0],[6.70387,0.39183,0.0],[6.68141,0.40713,0.0]]]}
,"properties": {"ISO3166-1-Alpha-3": "STP","country": "Sao Tome and Principe","fill": "#F0F","name": "São Tomé","area_km2": 884.9292,"hist_schema_id": "Elevation0-9000","hist_area_km2": {"0": 70.8571,"25": 45.351,"50": 45.1602,"75": 47.8105,"100": 48.3406,"125": 45.5844,"150": 40.1142,"175": 36.6159,"200": 35.6406,"225": 32.7147,"250": 30.3613,"275": 26.9266,"300": 27.6686,"325": 25.2304,"350": 22.3681,"375": 20.3115,"400": 17.8521,"425": 16.9616,"450": 16.0287,"475": 14.9262,"500": 13.3785,"525": 13.5057,"550": 12.7,"575": 12.2123,"600": 12.488,"625": 11.6187,"650": 10.707,"675": 9.4349,"700": 8.7352,"725": 8.0143,"750": 6.9331,"775": 6.0426,"800": 5.9366,"825": 5.7457,"850": 5.6821,"875": 5.3641,"900": 5.2793,"925": 4.7068,"950": 4.7704,"975": 4.41,"1000": 4.0496,"1025": 4.1556,"1050": 3.6043,"1075": 3.6255,"1100": 2.9471,"1125": 2.6078,"1150": 2.5654,"1175": 2.3958,"1200": 2.3322,"1225": 2.6502,"1250": 2.2474,"1275": 1.9082,"1300": 1.8446,"1325": 1.887,"1350": 1.2933,"1375": 1.2721,"1400": 1.4417,"1425": 0.9541,"1450": 1.0813,"1475": 0.7845,"1500": 0.3816,"1525": 0.6573,"1550": 0.5088,"1575": 0.5513,"1600": 0.3604,"1625": 0.4664,"1650": 0.3392,"1675": 0.2332,"1700": 0.1484,"1725": 0.2544,"1750": 0.1696,"1775": 0.106,"1800": 0.106,"1825": 0.0848,"1850": 0.1484,"1875": 0.0424,"1900": 0.106,"1925": 0.0636,"1950": 0.0424,"1975": 0.0212}}}