{"type": "Feature","bbox": [6.4599,-0.0135,6.7624,0.4135],"geometry": {"type": "MultiPolygon","coordinates": [[[[6.5293,0.0032,0.6549],[6.5274,0.004,0.0],[6.5243,0.0018,6.802],[6.5224,0.0029,0.0],[6.5221,0.0007,5.6532],[6.5188,0.0021,0.0],[6.5174,-0.0007,0.0],[6.5129,-0.0024,0.0],[6.511,-0.0085,0.0],[6.5149,-0.009,8.9578],[6.5149,-0.0132,0.0],[6.5246,-0.0135,0.0],[6.5279,-0.0065,5.5617],[6.5299,-0.0057,0.0],[6.526,-0.0015,12.0674],[6.5268,-0.001,3.1194],[6.5279,-0.0018,0.0],[6.5293,0.0032,0.6549]]],
[[[6.4812,0.1313,0.0],[6.4815,0.1326,0.0],[6.4799,0.1329,-0.0868],[6.4782,0.1299,0.0],[6.4801,0.1293,0.0],[6.4812,0.1313,0.0]]],
[[[6.4843,0.1382,0.061],[6.4807,0.1388,0.0],[6.4799,0.1371,0.7603],[6.4837,0.1365,0.0],[6.4843,0.1382,0.061]]],
[[[6.6735,0.1563,0.0],[6.6754,0.1607,20.7885],[6.6788,0.1601,0.0],[6.6815,0.1568,0.0],[6.6835,0.1571,0.0],[6.6824,0.1649,13.6998],[6.6793,0.1688,12.4567],[6.6807,0.1701,0.0],[6.6871,0.1685,0.0],[6.6913,0.1701,0.0],[6.6912,0.1726,0.0],[6.6868,0.1757,0.0],[6.6871,0.1774,13.3687],[6.6896,0.1796,0.0],[6.694,0.1796,5.001],[6.6957,0.1838,44.307],[6.699,0.1838,0.0],[6.6999,0.1899,3.009],[6.7029,0.1918,3.4425],[6.7018,0.1954,0.0],[6.706,0.1979,6.104],[6.7063,0.2013,15.6614],[6.7126,0.2007,9.5426],[6.7176,0.2049,0.0],[6.7215,0.204,0.0],[6.7232,0.2129,17.5189],[6.7285,0.2129,0.0],[6.729,0.2151,4.0766],[6.726,0.2149,10.2698],[6.7257,0.2163,2.9111],[6.7279,0.2163,0.0],[6.7332,0.2207,0.8541],[6.7357,0.2285,7.7509],[6.7424,0.2326,7.9198],[6.7457,0.231,0.7468],[6.7438,0.2374,5.6989],[6.7488,0.2407,9.5703],[6.7493,0.2426,14.8901],[6.7485,0.2454,6.5498],[6.7451,0.2465,2.9753],[6.7443,0.2526,0.0],[6.7454,0.2565,7.7867],[6.7435,0.2574,0.0],[6.7432,0.2596,0.0],[6.7471,0.2607,4.8798],[6.7471,0.266,3.6341],[6.7501,0.2679,28.2712],[6.7501,0.2699,21.7061],[6.7474,0.2715,18.0447],[6.7457,0.2751,9.5767],[6.746,0.2771,10.2637],[6.7507,0.2821,0.0],[6.751,0.2879,1.269],[6.7582,0.286,0.0],[6.7604,0.2888,0.0],[6.7607,0.2929,0.0],[6.7624,0.2932,0.0],[6.7621,0.2954,0.0],[6.756,0.2968,10.2592],[6.7524,0.3007,0.0],[6.7515,0.3049,0.0],[6.7482,0.3068,9.0778],[6.7496,0.3101,0.0],[6.7488,0.3135,1.3245],[6.7415,0.3182,7.9714],[6.7426,0.3329,0.0],[6.7399,0.334,6.939],[6.7415,0.3385,2.6264],[6.7401,0.3465,1.9141],[6.7368,0.349,0.0],[6.7337,0.3399,4.7642],[6.7271,0.341,3.6572],[6.7232,0.3451,12.3446],[6.7221,0.349,2.2192],[6.7268,0.3585,0.0],[6.7235,0.3615,3.8107],[6.7213,0.3618,0.0],[6.7176,0.3593,1.8045],[6.7138,0.3621,3.7438],[6.7132,0.3713,5.4559],[6.7174,0.3726,1.0762],[6.7185,0.3751,0.0],[6.7224,0.3751,0.0],[6.7201,0.3782,0.6772],[6.7201,0.3818,0.0],[6.7154,0.381,4.4011],[6.7138,0.3835,0.9198],[6.7076,0.3826,1.0334],[6.7026,0.3843,0.9941],[6.6951,0.391,0.0],[6.6926,0.4013,2.2012],[6.6901,0.404,0.0],[6.6696,0.4085,5.7735],[6.6674,0.4115,2.2673],[6.6613,0.4135,1.564],[6.6596,0.4118,5.6251],[6.6482,0.4115,3.1988],[6.6451,0.4088,0.0],[6.639,0.4093,0.0],[6.6382,0.4068,8.9439],[6.634,0.4071,1.343],[6.6263,0.4107,0.0],[6.6218,0.4068,5.9386],[6.6087,0.4076,0.0],[6.6087,0.404,3.4272],[6.6049,0.3957,23.9381],[6.6015,0.3949,0.0],[6.5957,0.3882,26.0569],[6.5885,0.3846,3.1872],[6.5868,0.3804,28.6329],[6.5801,0.376,4.961],[6.5738,0.366,10.145],[6.5615,0.3588,6.9164],[6.5493,0.361,0.0],[6.5446,0.3599,0.0],[6.5413,0.3574,1.1706],[6.5387,0.349,3.7633],[6.5288,0.3454,8.541],[6.5226,0.3318,24.6464],[6.516,0.3329,0.0],[6.5104,0.3315,2.3913],[6.5087,0.3265,7.4902],[6.5049,0.3226,0.0],[6.4918,0.3182,7.3328],[6.4888,0.3115,0.0],[6.4904,0.3051,52.4962],[6.4876,0.2993,9.4643],[6.4885,0.2926,77.4546],[6.4849,0.2888,0.0],[6.4818,0.2751,80.0175],[6.4799,0.2718,132.8424],[6.4743,0.2724,0.0],[6.4688,0.2674,0.0],[6.4663,0.2626,0.0],[6.4651,0.2513,5.1715],[6.4624,0.2482,6.2115],[6.4626,0.2446,9.5347],[6.4599,0.2435,0.0],[6.4626,0.2424,43.3267],[6.4615,0.2399,24.8002],[6.4638,0.2396,138.2605],[6.4632,0.2382,19.5924],[6.4657,0.2368,49.3038],[6.4657,0.2315,43.2419],[6.4635,0.231,0.0],[6.4626,0.2285,67.2487],[6.4638,0.2271,67.2487],[6.461,0.2249,31.7783],[6.4651,0.2199,14.9427],[6.4632,0.2151,3.771],[6.4674,0.2076,98.2214],[6.4651,0.2051,2.3525],[6.4668,0.1999,58.7041],[6.4651,0.2001,11.3332],[6.4624,0.196,9.5588],[6.4668,0.1971,96.2583],[6.4688,0.1921,18.9391],[6.4682,0.1863,0.0],[6.471,0.1846,147.9003],[6.4726,0.1799,0.0],[6.4749,0.1793,32.607],[6.476,0.1754,0.0],[6.4785,0.1738,0.0],[6.4768,0.1696,8.3452],[6.479,0.1665,184.6211],[6.4774,0.1649,13.547],[6.4799,0.1624,221.6556],[6.4804,0.1568,65.1434],[6.4779,0.1457,0.0],[6.4807,0.1454,2.9756],[6.4849,0.1393,0.0],[6.4885,0.1379,7.5332],[6.4837,0.1332,0.0],[6.4885,0.1296,16.8738],[6.4926,0.1288,5.7597],[6.4963,0.1243,14.5687],[6.4954,0.116,82.8662],[6.4921,0.1149,5.4534],[6.4904,0.1113,0.0],[6.4974,0.1113,67.8284],[6.5004,0.106,8.4345],[6.511,0.1071,54.1042],[6.5163,0.0985,30.94],[6.516,0.0951,79.3382],[6.5135,0.0926,0.0351],[6.514,0.0885,0.0],[6.5171,0.0865,13.1877],[6.5157,0.0821,8.7766],[6.5179,0.0774,0.0],[6.5157,0.0754,2.247],[6.5154,0.0718,28.3871],[6.5121,0.0712,0.0],[6.5163,0.0687,101.9655],[6.5146,0.0646,37.5644],[6.5157,0.0615,12.843],[6.5132,0.0601,0.0],[6.5149,0.054,22.4259],[6.5126,0.0521,0.0],[6.5085,0.0538,0.0],[6.5057,0.0496,17.9895],[6.506,0.0471,22.0618],[6.5101,0.0451,6.326],[6.5129,0.0388,0.0],[6.5126,0.0285,7.1797],[6.5112,0.0257,0.0],[6.5121,0.0224,7.4964],[6.5171,0.0187,0.0],[6.5201,0.0243,4.629],[6.5238,0.024,2.7936],[6.5263,0.0265,1.9434],[6.5304,0.0257,0.0],[6.534,0.0282,0.7543],[6.534,0.0326,6.966],[6.5368,0.0324,0.0],[6.5365,0.0351,0.0],[6.5343,0.0363,14.5058],[6.5343,0.0404,12.9355],[6.5363,0.0424,0.0],[6.5343,0.0451,4.7667],[6.5371,0.0479,3.0802],[6.5396,0.0479,2.4036],[6.5426,0.0421,26.4429],[6.5449,0.0415,24.6994],[6.5454,0.0354,0.6928],[6.5474,0.0338,14.9748],[6.5488,0.0365,1.1796],[6.5526,0.0371,29.0975],[6.5543,0.0338,0.0],[6.5582,0.036,5.5742],[6.5593,0.0421,0.0],[6.5579,0.0421,0.0],[6.5571,0.0446,0.0],[6.5593,0.0468,0.0],[6.5582,0.0493,24.9062],[6.5618,0.0521,37.3753],[6.5637,0.051,0.0],[6.564,0.0551,7.1369],[6.5668,0.056,0.0],[6.5646,0.0604,59.7643],[6.566,0.0671,0.0],[6.564,0.0718,2.9175],[6.5687,0.0782,0.0],[6.5682,0.0821,0.0],[6.5696,0.0846,0.0],[6.5782,0.0857,5.9927],[6.5804,0.0815,0.0],[6.5818,0.0835,0.0],[6.5849,0.0835,24.1169],[6.5849,0.0804,3.7499],[6.5871,0.079,22.4444],[6.5857,0.0765,0.0],[6.5871,0.0757,7.8856],[6.5893,0.0754,0.0],[6.5901,0.0785,0.0],[6.5932,0.0785,26.6279],[6.5951,0.0763,0.0],[6.599,0.0757,0.4848],[6.5979,0.0813,18.3712],[6.6015,0.084,38.664],[6.6046,0.0821,2.6814],[6.6149,0.081,0.0],[6.6115,0.0846,2.9385],[6.6121,0.0865,0.0],[6.6157,0.0874,1.8],[6.6215,0.0976,7.3808],[6.6229,0.0962,0.0],[6.6249,0.0976,3.5134],[6.6282,0.096,0.0],[6.6265,0.0987,5.4686],[6.6274,0.1013,14.8267],[6.6307,0.1001,0.0],[6.6368,0.101,0.0],[6.6363,0.1049,12.2398],[6.6376,0.1068,0.0],[6.6474,0.1063,0.0],[6.6526,0.1076,0.0],[6.6546,0.1107,0.0],[6.6546,0.1201,0.0],[6.6463,0.1254,15.5229],[6.646,0.1293,0.0],[6.6471,0.131,1.1082],[6.6532,0.1296,1.7426],[6.656,0.131,0.0],[6.654,0.1349,0.0],[6.6551,0.1374,10.5429],[6.6596,0.1385,2.3524],[6.671,0.1457,9.0341],[6.6732,0.1454,0.0],[6.6732,0.1476,0.0],[6.669,0.1471,0.0],[6.6674,0.1507,6.8045],[6.6701,0.1549,19.1025],[6.6754,0.1532,0.0],[6.676,0.1549,16.577],[6.6735,0.1563,0.0]]],
[[[6.7604,0.2418,5.063],[6.7585,0.2426,0.0],[6.7579,0.2401,0.0],[6.7613,0.2393,0.0],[6.7604,0.2418,5.063]]],
[[[6.7185,0.4113,0.0],[6.7129,0.4088,0.0],[6.7113,0.4046,0.0],[6.7165,0.4068,0.0],[6.7185,0.4113,0.0]]]]}
,"properties": {"GID_1": "STP.2_1","GID_0": "STP","country": "SãoToméandPríncipe","province": "SãoTomé","VARNAME_1": "NA","NL_NAME_1": "NA","TYPE_1": "Concelho","ENGTYPE_1": "Municipality","CC_1": "NA","HASC_1": "ST.ST","ISO_1": "NA","name": "São_Tomé.province","area_km2": 861.1828,"hist_schema_id": "Elevation0-9000","hist_area_km2": {"0": 27.3081,"25": 51.436,"50": 48.6798,"75": 50.9484,"100": 50.6092,"125": 47.3441,"150": 41.1107,"175": 37.4004,"200": 35.9798,"225": 33.0327,"250": 30.5945,"275": 27.0962,"300": 27.7534,"325": 25.2728,"350": 22.4317,"375": 20.3115,"400": 17.8521,"425": 16.9616,"450": 16.0287,"475": 14.9262,"500": 13.3785,"525": 13.5057,"550": 12.7,"575": 12.2123,"600": 12.488,"625": 11.6187,"650": 10.707,"675": 9.4349,"700": 8.7352,"725": 8.0143,"750": 6.9331,"775": 6.0426,"800": 5.9366,"825": 5.7457,"850": 5.6821,"875": 5.3641,"900": 5.2793,"925": 4.7068,"950": 4.7704,"975": 4.41,"1000": 4.0496,"1025": 4.1556,"1050": 3.6043,"1075": 3.6255,"1100": 2.9471,"1125": 2.6078,"1150": 2.5654,"1175": 2.3958,"1200": 2.3322,"1225": 2.6502,"1250": 2.2474,"1275": 1.9082,"1300": 1.8446,"1325": 1.887,"1350": 1.2933,"1375": 1.2721,"1400": 1.4417,"1425": 0.9541,"1450": 1.0813,"1475": 0.7845,"1500": 0.3816,"1525": 0.6573,"1550": 0.5088,"1575": 0.5513,"1600": 0.3604,"1625": 0.4664,"1650": 0.3392,"1675": 0.2332,"1700": 0.1484,"1725": 0.2544,"1750": 0.1696,"1775": 0.106,"1800": 0.106,"1825": 0.0848,"1850": 0.1484,"1875": 0.0424,"1900": 0.106,"1925": 0.0636,"1950": 0.0424,"1975": 0.0212}}}