{"type": "Feature","bbox": [6.4599,0.1251,6.5967,0.3849],"geometry": {"type": "MultiPolygon","coordinates": [[[[6.481,0.1326,0.0],[6.4788,0.1324,0.0],[6.4785,0.1296,0.0],[6.4804,0.1296,0.0],[6.481,0.1326,0.0]]],
[[[6.4837,0.1385,0.061],[6.4807,0.1388,0.0],[6.4799,0.1371,0.7603],[6.4837,0.1365,0.0],[6.4837,0.1385,0.061]]],
[[[6.5754,0.2666,1391.0735],[6.5795,0.2703,1522.1577],[6.5864,0.2848,1447.5667],[6.5883,0.313,1020.4079],[6.5909,0.3189,943.2009],[6.5879,0.3443,565.6844],[6.5946,0.3512,409.6326],[6.5967,0.3555,288.8623],[6.5963,0.3676,356.7183],[6.5906,0.3849,12.2815],[6.5885,0.3846,3.1872],[6.5846,0.3782,80.8633],[6.5801,0.376,4.961],[6.5738,0.366,10.145],[6.5615,0.3588,6.9164],[6.5493,0.361,0.0],[6.5446,0.3599,0.0],[6.5413,0.3574,1.1706],[6.5387,0.349,3.7633],[6.5288,0.3454,8.541],[6.5226,0.3318,24.6464],[6.516,0.3329,0.0],[6.5104,0.3315,2.3913],[6.5087,0.3265,7.4902],[6.5049,0.3226,0.0],[6.4926,0.319,0.0],[6.4888,0.3115,0.0],[6.4904,0.3051,52.4962],[6.4876,0.2993,9.4643],[6.4885,0.2926,77.4546],[6.4849,0.2888,0.0],[6.4818,0.2751,80.0175],[6.4799,0.2718,132.8424],[6.4743,0.2724,0.0],[6.4724,0.271,0.0],[6.4663,0.2626,0.0],[6.4651,0.2513,5.1715],[6.4624,0.2482,6.2115],[6.4626,0.2446,9.5347],[6.4599,0.2435,0.0],[6.4626,0.2424,43.3267],[6.4615,0.2399,24.8002],[6.4638,0.2396,138.2605],[6.4632,0.2382,19.5924],[6.4657,0.2368,49.3038],[6.4657,0.2315,43.2419],[6.4635,0.231,0.0],[6.4626,0.2285,67.2487],[6.4638,0.2271,67.2487],[6.461,0.2249,31.7783],[6.4651,0.2199,14.9427],[6.4632,0.2151,3.771],[6.4674,0.2076,98.2214],[6.4651,0.2051,2.3525],[6.4668,0.1999,58.7041],[6.4651,0.2001,11.3332],[6.4624,0.196,9.5588],[6.4668,0.1971,96.2583],[6.4688,0.1921,18.9391],[6.4682,0.1863,0.0],[6.471,0.1846,147.9003],[6.4726,0.1799,0.0],[6.4749,0.1793,32.607],[6.476,0.1754,0.0],[6.4785,0.1738,0.0],[6.4768,0.1696,8.3452],[6.479,0.1665,184.6211],[6.4774,0.1649,13.547],[6.4799,0.1624,221.6556],[6.4804,0.1568,65.1434],[6.4779,0.1457,0.0],[6.4807,0.1454,2.9756],[6.4849,0.1393,0.0],[6.4885,0.1379,7.5332],[6.4837,0.1332,0.0],[6.4885,0.1296,16.8738],[6.4926,0.1288,5.7597],[6.4954,0.1251,14.5687],[6.5112,0.1356,250.7166],[6.5224,0.1462,345.4123],[6.5395,0.1732,762.7225],[6.5516,0.1958,1300.0767],[6.5516,0.2145,822.0477],[6.5577,0.2322,791.8344],[6.5577,0.2384,904.5718],[6.5537,0.2563,1393.7338],[6.5575,0.2612,1564.0569],[6.57,0.2632,1378.579],[6.5754,0.2666,1391.0735]]]]}
,"properties": {"GID_2": "STP.2.4_1","GID_0": "STP","country": "SãoToméandPríncipe","GID_1": "STP.2_1","province": "SãoTomé","NL_NAME_1": "NA","county": "Lembá","VARNAME_2": "NA","NL_NAME_2": "NA","TYPE_2": "District","ENGTYPE_2": "NA","CC_2": "NA","HASC_2": "ST.ST.LE","name": "Lembá.county","area_km2": 227.7093,"hist_schema_id": "Elevation0-9000","hist_area_km2": {"0": 3.4559,"25": 6.1486,"50": 6.1274,"75": 7.9932,"100": 8.9472,"125": 9.0108,"150": 9.4349,"175": 9.0321,"200": 9.0957,"225": 8.82,"250": 8.1204,"275": 7.5479,"300": 8.1204,"325": 7.2723,"350": 7.4631,"375": 6.509,"400": 5.5761,"425": 5.6185,"450": 5.3217,"475": 4.728,"500": 5.0885,"525": 5.1521,"550": 4.198,"575": 4.1344,"600": 3.4559,"625": 4.0708,"650": 3.4983,"675": 3.6255,"700": 3.1167,"725": 3.0319,"750": 2.6715,"775": 2.4382,"800": 2.2474,"825": 2.2686,"850": 1.9506,"875": 1.8658,"900": 2.2898,"925": 1.675,"950": 1.9082,"975": 1.6538,"1000": 1.7598,"1025": 1.3993,"1050": 1.3781,"1075": 1.2933,"1100": 0.9753,"1125": 0.9329,"1150": 0.9965,"1175": 0.7209,"1200": 1.0813,"1225": 0.9117,"1250": 0.9753,"1275": 0.7421,"1300": 0.7633,"1325": 0.8057,"1350": 0.5513,"1375": 0.6149,"1400": 0.8905,"1425": 0.4876,"1450": 0.6573,"1475": 0.53,"1500": 0.2756,"1525": 0.5725,"1550": 0.4664,"1575": 0.5513,"1600": 0.3604,"1625": 0.4664,"1650": 0.3392,"1675": 0.2332,"1700": 0.1484,"1725": 0.2544,"1750": 0.1696,"1775": 0.106,"1800": 0.106,"1825": 0.0848,"1850": 0.1484,"1875": 0.0424,"1900": 0.106,"1925": 0.0636,"1950": 0.0424,"1975": 0.0212}}}