{"type": "Feature","bbox": [6.4904,-0.0135,6.676,0.2685],"geometry": {"type": "MultiPolygon","coordinates": [[[[6.5293,0.0035,0.6549],[6.5274,0.004,0.0],[6.5243,0.0018,6.802],[6.5224,0.0029,0.0],[6.5221,0.0007,5.6532],[6.5188,0.0021,0.0],[6.5174,-0.0007,0.0],[6.5129,-0.0024,0.0],[6.511,-0.0085,0.0],[6.5149,-0.009,8.9578],[6.5149,-0.0132,0.0],[6.5246,-0.0135,0.0],[6.5279,-0.0065,5.5617],[6.5299,-0.0057,0.0],[6.526,-0.0015,12.0674],[6.5268,-0.001,3.1194],[6.5279,-0.0018,0.0],[6.5293,0.0035,0.6549]]],
[[[6.6271,0.2417,445.4174],[6.6127,0.2492,548.0273],[6.5938,0.2504,1064.2881],[6.588,0.2523,871.1768],[6.5822,0.2574,1039.6797],[6.5777,0.2685,1503.4406],[6.57,0.2632,1378.579],[6.5605,0.2621,1563.5841],[6.5551,0.2596,1537.153],[6.5539,0.252,1119.167],[6.5577,0.2384,904.5718],[6.5577,0.2322,791.8344],[6.5516,0.2145,822.0477],[6.5514,0.1948,1233.3745],[6.5224,0.1462,345.4123],[6.5135,0.1374,267.2749],[6.4957,0.1251,14.5687],[6.4954,0.116,82.8662],[6.4921,0.1149,5.4534],[6.4904,0.1115,0.0],[6.491,0.1104,0.0],[6.4938,0.1121,63.3367],[6.4974,0.1113,67.8284],[6.5004,0.106,8.4345],[6.511,0.1071,54.1042],[6.5163,0.0985,30.94],[6.516,0.0951,79.3382],[6.5135,0.0926,0.0351],[6.514,0.0885,0.0],[6.5171,0.0865,13.1877],[6.5157,0.0821,8.7766],[6.5179,0.0774,0.0],[6.5157,0.0754,2.247],[6.5154,0.0718,28.3871],[6.5121,0.0712,0.0],[6.5163,0.0687,101.9655],[6.5146,0.0646,37.5644],[6.5157,0.0615,12.843],[6.5132,0.0601,0.0],[6.5149,0.054,22.4259],[6.5126,0.0521,0.0],[6.5079,0.0535,3.7655],[6.5057,0.049,17.9895],[6.506,0.0471,22.0618],[6.5101,0.0451,6.326],[6.5126,0.0396,0.0],[6.5115,0.0235,0.0],[6.5163,0.0187,0.0],[6.5185,0.0196,0.0],[6.5201,0.0243,4.629],[6.5238,0.024,2.7936],[6.5263,0.0265,1.9434],[6.5304,0.0257,0.0],[6.534,0.0282,0.7543],[6.534,0.0326,6.966],[6.5368,0.0324,0.0],[6.5365,0.0351,0.0],[6.5343,0.0363,14.5058],[6.5343,0.0404,12.9355],[6.5363,0.0424,0.0],[6.5343,0.0451,4.7667],[6.5371,0.0479,3.0802],[6.5396,0.0479,2.4036],[6.5426,0.0421,26.4429],[6.5449,0.0415,24.6994],[6.5454,0.0354,0.6928],[6.5474,0.0338,14.9748],[6.5488,0.0365,1.1796],[6.5526,0.0371,29.0975],[6.5543,0.0338,0.0],[6.5582,0.036,5.5742],[6.5593,0.0421,0.0],[6.5579,0.0421,0.0],[6.5571,0.0446,0.0],[6.5593,0.0468,0.0],[6.5582,0.0493,24.9062],[6.5618,0.0521,37.3753],[6.5637,0.051,0.0],[6.564,0.0551,7.1369],[6.5668,0.056,0.0],[6.5646,0.0604,59.7643],[6.566,0.0671,0.0],[6.564,0.0718,2.9175],[6.5687,0.0782,0.0],[6.5682,0.0821,0.0],[6.5696,0.0846,0.0],[6.5782,0.0857,5.9927],[6.5804,0.0815,0.0],[6.5813,0.0832,12.0165],[6.5846,0.0838,45.2967],[6.5851,0.0799,3.7499],[6.5871,0.079,22.4444],[6.5857,0.0765,0.0],[6.5879,0.0754,0.0],[6.5893,0.0754,0.0],[6.5901,0.0785,0.0],[6.599,0.0757,0.4848],[6.5979,0.0813,18.3712],[6.6015,0.084,38.664],[6.6046,0.0821,2.6814],[6.6149,0.081,0.0],[6.6115,0.0854,2.9385],[6.6157,0.0874,1.8],[6.6215,0.0976,7.3808],[6.6229,0.0962,0.0],[6.6249,0.0976,3.5134],[6.6282,0.096,0.0],[6.6268,0.1007,27.4688],[6.6368,0.101,0.0],[6.6363,0.1049,12.2398],[6.6376,0.1068,0.0],[6.6474,0.1063,0.0],[6.6529,0.1079,0.0],[6.6546,0.1107,0.0],[6.6546,0.1201,0.0],[6.6463,0.1254,15.5229],[6.646,0.1293,0.0],[6.6471,0.131,1.1082],[6.6532,0.1296,1.7426],[6.656,0.131,0.0],[6.654,0.1349,0.0],[6.6551,0.1374,10.5429],[6.6596,0.1385,2.3524],[6.671,0.1457,9.0341],[6.6735,0.1457,0.0],[6.6732,0.1476,0.0],[6.6682,0.1479,0.0],[6.6676,0.1518,6.8045],[6.6701,0.1549,19.1025],[6.6754,0.1532,0.0],[6.676,0.1549,16.577],[6.6735,0.1563,0.0],[6.6735,0.1579,0.0],[6.665,0.1625,30.7866],[6.665,0.1664,33.3393],[6.6585,0.1782,68.5395],[6.6512,0.1817,153.0636],[6.6477,0.1859,115.227],[6.6445,0.1855,125.8304],[6.6407,0.189,137.7931],[6.633,0.1893,262.2589],[6.6301,0.191,206.5265],[6.625,0.2113,567.963],[6.6251,0.2337,721.8186],[6.6271,0.2417,445.4174]]]]}
,"properties": {"GID_2": "STP.2.3_1","GID_0": "STP","country": "SãoToméandPríncipe","GID_1": "STP.2_1","province": "SãoTomé","NL_NAME_1": "NA","county": "Caué","VARNAME_2": "NA","NL_NAME_2": "NA","TYPE_2": "District","ENGTYPE_2": "NA","CC_2": "NA","HASC_2": "ST.ST.CU","name": "Caué.county","area_km2": 267.4225,"hist_schema_id": "Elevation0-9000","hist_area_km2": {"0": 7.8448,"25": 18.7215,"50": 16.4953,"75": 17.0041,"100": 17.407,"125": 18.9971,"150": 15.2231,"175": 14.3539,"200": 12.3396,"225": 11.0675,"250": 10.7495,"275": 8.6081,"300": 8.396,"325": 7.1239,"350": 6.0214,"375": 5.873,"400": 4.1132,"425": 3.986,"450": 3.9012,"475": 4.1132,"500": 3.4347,"525": 3.6256,"550": 3.4135,"575": 3.3287,"600": 3.668,"625": 3.3711,"650": 3.5407,"675": 2.6079,"700": 2.9895,"725": 2.2898,"750": 2.3534,"775": 1.8022,"800": 1.887,"825": 1.4629,"850": 1.4629,"875": 1.4205,"900": 1.2933,"925": 1.1237,"950": 1.1661,"975": 1.0389,"1000": 0.6785,"1025": 0.6573,"1050": 0.4664,"1075": 0.4664,"1100": 0.5301,"1125": 0.4876,"1150": 0.3816,"1175": 0.4452,"1200": 0.4452,"1225": 0.5725,"1250": 0.3604,"1275": 0.3816,"1300": 0.2968,"1325": 0.3604,"1350": 0.1908,"1375": 0.1908,"1400": 0.212,"1425": 0.1484,"1450": 0.1908,"1475": 0.106,"1500": 0.0848,"1525": 0.0848,"1550": 0.0636}}}