{"type": "Feature","bbox": [6.5879,0.3176,6.7182,0.4135],"geometry": {"type": "MultiPolygon","coordinates": [[[[6.7028,0.383,4.0804],[6.6951,0.391,0.0],[6.6926,0.4013,2.2012],[6.6901,0.404,0.0],[6.6696,0.4085,5.7735],[6.6674,0.4115,2.2673],[6.6613,0.4135,1.564],[6.6596,0.4118,5.6251],[6.6482,0.4115,3.1988],[6.6451,0.4088,0.0],[6.639,0.4093,0.0],[6.6382,0.4068,8.9439],[6.634,0.4071,1.343],[6.6263,0.4107,0.0],[6.6218,0.4068,5.9386],[6.6087,0.4076,0.0],[6.6087,0.404,3.4272],[6.6049,0.3957,23.9381],[6.6015,0.3949,0.0],[6.5906,0.3849,12.2815],[6.5967,0.3656,344.1115],[6.5962,0.3538,379.5663],[6.5879,0.3443,565.6844],[6.5907,0.3186,987.5149],[6.6149,0.3184,610.4292],[6.6212,0.3227,514.4456],[6.6375,0.3435,353.4251],[6.6566,0.3439,222.5059],[6.6646,0.3467,219.1136],[6.663,0.3381,268.0723],[6.6657,0.3336,262.7583],[6.67,0.3326,223.8065],[6.6786,0.3341,163.4928],[6.6788,0.3292,256.6446],[6.6849,0.3249,205.4459],[6.6942,0.325,138.1024],[6.6966,0.3191,150.1258],[6.7041,0.3176,102.8322],[6.7106,0.3332,58.2928],[6.7108,0.3368,74.0639],[6.7055,0.3452,74.0953],[6.7104,0.3523,26.4241],[6.7116,0.3607,8.0019],[6.7104,0.3671,4.3397],[6.7061,0.3711,16.2513],[6.7026,0.3776,13.4472],[6.7028,0.383,4.0804]]],
[[[6.7182,0.4113,0.0],[6.7129,0.4088,0.0],[6.7113,0.4046,0.0],[6.7165,0.4068,0.0],[6.7182,0.4113,0.0]]]]}
,"properties": {"GID_2": "STP.2.5_1","GID_0": "STP","country": "SãoToméandPríncipe","GID_1": "STP.2_1","province": "SãoTomé","NL_NAME_1": "NA","county": "Lobata","VARNAME_2": "NA","NL_NAME_2": "NA","TYPE_2": "District","ENGTYPE_2": "NA","CC_2": "NA","HASC_2": "ST.ST.LO","name": "Lobata.county","area_km2": 106.39049,"hist_schema_id": "Elevation0-9000","hist_area_km2": {"0": 5.13081,"25": 12.46661,"50": 10.36765,"75": 9.43478,"100": 10.21926,"125": 7.90826,"150": 5.9789,"175": 4.26156,"200": 4.15555,"225": 3.79512,"250": 2.94705,"275": 3.18027,"300": 2.71383,"325": 2.48061,"350": 2.311,"375": 2.01417,"400": 1.67494,"425": 1.52653,"450": 1.63254,"475": 1.25091,"500": 1.06009,"525": 1.1025,"550": 1.25091,"575": 0.97528,"600": 1.06009,"625": 0.78447,"650": 0.72086,"675": 0.78447,"700": 0.59365,"725": 0.53005,"750": 0.46644,"775": 0.27562,"800": 0.29683,"825": 0.33923,"850": 0.19082,"875": 0.23322,"900": 0.12721,"925": 0.12721,"950": 0.0212}}}