{"type": "Feature","bbox": [6.5777,0.24,6.756,0.3467],"geometry": {"type": "MultiPolygon","coordinates": [[[[6.7041,0.3176,102.8322],[6.6966,0.3191,150.1258],[6.6942,0.325,138.1024],[6.6849,0.3249,205.4459],[6.6788,0.3292,256.6446],[6.6786,0.3341,163.4928],[6.67,0.3326,223.8065],[6.6657,0.3336,262.7583],[6.663,0.3381,268.0723],[6.6646,0.3467,219.1136],[6.6566,0.3439,222.5059],[6.6375,0.3435,353.4251],[6.6212,0.3227,514.4456],[6.6149,0.3184,610.4292],[6.5907,0.3186,987.5149],[6.5878,0.3089,980.697],[6.5869,0.2869,1435.332],[6.5845,0.2794,1338.2897],[6.5777,0.2685,1503.4406],[6.5787,0.2644,1334.3853],[6.5822,0.2574,1039.6797],[6.588,0.2523,871.1768],[6.5938,0.2504,1064.2881],[6.6127,0.2492,548.0273],[6.6301,0.2409,467.7223],[6.6398,0.2423,414.9839],[6.6462,0.2481,252.4562],[6.6525,0.2428,266.9634],[6.6611,0.2426,208.2789],[6.6651,0.24,207.2251],[6.6738,0.2404,129.8002],[6.6745,0.2426,158.8625],[6.6689,0.2533,389.8012],[6.6681,0.2641,470.3051],[6.6698,0.2684,391.7282],[6.6773,0.2748,286.7668],[6.6886,0.2774,222.7363],[6.6969,0.2748,192.8654],[6.7019,0.2749,186.5816],[6.7132,0.2846,126.4401],[6.7223,0.2881,89.0933],[6.7378,0.2895,69.2945],[6.7445,0.2949,34.0067],[6.756,0.2968,10.2592],[6.7524,0.3007,0.0],[6.7515,0.3049,0.0],[6.7485,0.3063,1.1747],[6.7488,0.3093,0.0],[6.7408,0.314,14.0888],[6.7246,0.3122,50.7371],[6.7176,0.3174,65.6199],[6.7107,0.3188,78.1735],[6.7041,0.3176,102.8322]]]]}
,"properties": {"GID_2": "STP.2.6_1","GID_0": "STP","country": "SãoToméandPríncipe","GID_1": "STP.2_1","province": "SãoTomé","NL_NAME_1": "NA","county": "Mé-Zóchi","VARNAME_2": "NA","NL_NAME_2": "NA","TYPE_2": "District","ENGTYPE_2": "NA","CC_2": "NA","HASC_2": "ST.ST.MZ","name": "Mé-Zóchi.county","area_km2": 125.87586,"hist_schema_id": "Elevation0-9000","hist_area_km2": {"0": 0.69966,"25": 2.07779,"50": 2.67144,"75": 3.66793,"100": 3.51952,"125": 2.75625,"150": 2.88346,"175": 2.96827,"200": 3.62553,"225": 3.3499,"250": 3.62553,"275": 3.2863,"300": 3.87995,"325": 4.17678,"350": 3.66793,"375": 3.62553,"400": 3.98596,"425": 3.37111,"450": 3.49832,"475": 3.51952,"500": 2.65024,"525": 2.65024,"550": 2.73505,"575": 2.77746,"600": 3.20149,"625": 2.77745,"650": 2.31101,"675": 1.97178,"700": 1.69615,"725": 1.92938,"750": 1.39933,"775": 1.48414,"800": 1.48414,"825": 1.67495,"850": 2.07779,"875": 1.84457,"900": 1.61135,"925": 1.78096,"950": 1.67495,"975": 1.71736,"1000": 1.56894,"1025": 2.09899,"1050": 1.78096,"1075": 1.86577,"1100": 1.48414,"1125": 1.18731,"1150": 1.16611,"1175": 1.22971,"1200": 0.80567,"1225": 1.16611,"1250": 0.91168,"1275": 0.78447,"1300": 0.76327,"1325": 0.74207,"1350": 0.55125,"1375": 0.40284,"1400": 0.29683,"1425": 0.31803,"1450": 0.23322,"1475": 0.14841,"1500": 0.0212,"1525": 0.0212,"1550": 0.0212}}}