{"type":"Feature","properties":{"GID_2":"STP.2.2_1","GID_0":"STP","country":"SãoToméandPríncipe","GID_1":"STP.2_1","province":"SãoTomé","NL_NAME_1":"NA","county":"Cantagalo","VARNAME_2":"NA","NL_NAME_2":"NA","TYPE_2":"District","ENGTYPE_2":"NA","CC_2":"NA","HASC_2":"ST.ST.CG","name":"Cantagalo.county"},
"geometry":{"type": "MultiPolygon","coordinates": [[[[6.6715,0.158,22.557],[6.6737,0.1579,0.0],[6.6743,0.1604,0.0],[6.676,0.1607,20.7885],[6.6832,0.1568,0.0],[6.6824,0.1649,13.6998],[6.6793,0.1688,12.4567],[6.6807,0.1701,0.0],[6.6871,0.1685,0.0],[6.6913,0.1701,0.0],[6.6912,0.1726,0.0],[6.6868,0.1757,0.0],[6.6871,0.1774,13.3687],[6.6896,0.1796,0.0],[6.694,0.1796,5.001],[6.6957,0.1838,44.307],[6.699,0.1838,0.0],[6.6999,0.1899,3.009],[6.7029,0.1918,3.4425],[6.7018,0.1954,0.0],[6.706,0.1979,6.104],[6.7063,0.2013,15.6614],[6.7126,0.2007,9.5426],[6.7176,0.2049,0.0],[6.7215,0.204,0.0],[6.7232,0.2129,17.5189],[6.7285,0.2129,0.0],[6.729,0.2151,4.0766],[6.726,0.2149,10.2698],[6.7257,0.2163,2.9111],[6.7279,0.2163,0.0],[6.7332,0.2207,0.8541],[6.7357,0.2285,7.7509],[6.7424,0.2326,7.9198],[6.7457,0.231,0.7468],[6.7438,0.2374,5.6989],[6.7488,0.2407,9.5703],[6.7493,0.2426,14.8901],[6.7485,0.2454,6.5498],[6.7451,0.2465,2.9753],[6.7443,0.2526,0.0],[6.7454,0.2565,7.7867],[6.7435,0.2574,0.0],[6.7432,0.2596,0.0],[6.7471,0.2607,4.8798],[6.7471,0.266,3.6341],[6.7501,0.2679,28.2712],[6.7501,0.2699,21.7061],[6.7474,0.2715,18.0447],[6.7457,0.2751,9.5767],[6.746,0.2771,10.2637],[6.7507,0.2821,0.0],[6.751,0.2879,1.269],[6.7582,0.286,0.0],[6.7604,0.2888,0.0],[6.7607,0.2929,0.0],[6.7624,0.2932,0.0],[6.7615,0.2965,0.0],[6.7497,0.2961,21.8004],[6.7445,0.2949,34.0067],[6.7378,0.2895,69.2945],[6.7223,0.2881,89.0933],[6.7132,0.2846,126.4401],[6.7019,0.2749,186.5816],[6.6969,0.2748,192.8654],[6.6886,0.2774,222.7363],[6.6773,0.2748,286.7668],[6.6698,0.2684,391.7282],[6.6681,0.2641,470.3051],[6.6689,0.2533,389.8012],[6.6745,0.2426,158.8625],[6.6738,0.2404,129.8002],[6.6651,0.24,207.2251],[6.6611,0.2426,208.2789],[6.6525,0.2428,266.9634],[6.6462,0.2481,252.4562],[6.638,0.2417,446.3268],[6.6338,0.2423,395.7788],[6.6301,0.2409,467.7223],[6.6273,0.2423,424.736],[6.6251,0.2337,721.8186],[6.625,0.2113,567.963],[6.6301,0.191,206.5265],[6.633,0.1893,262.2589],[6.6407,0.189,137.7931],[6.6445,0.1855,125.8304],[6.6477,0.1859,115.227],[6.6512,0.1817,153.0636],[6.6585,0.1782,68.5395],[6.665,0.1664,33.3393],[6.665,0.1625,30.7866],[6.6715,0.158,22.557]]],
[[[6.7596,0.2424,0.0],[6.7582,0.2424,0.0],[6.7579,0.2401,0.0],[6.7613,0.2393,0.0],[6.7615,0.2415,0.0],[6.7596,0.2424,0.0]]]]}}